[{"OBJECT_NAME":"STARLINK-5922","OBJECT_ID":"2023-037M","EPOCH":"2026-03-09T22:05:41.261280","MEAN_MOTION":14.9833624,"ECCENTRICITY":0.00029721,"INCLINATION":69.9994,"RA_OF_ASC_NODE":303.7996,"ARG_OF_PERICENTER":266.5752,"MEAN_ANOMALY":93.5067,"EPHEMERIS_TYPE":0,"CLASSIFICATION_TYPE":"U","NORAD_CAT_ID":55925,"ELEMENT_SET_NO":999,"REV_AT_EPOCH":16352,"BSTAR":-8.9701454e-5,"MEAN_MOTION_DOT":-1.163e-5,"MEAN_MOTION_DDOT":0},{"OBJECT_NAME":"NIGHTJAR","OBJECT_ID":"2024-149BV","EPOCH":"2026-03-09T15:29:33.054144","MEAN_MOTION":14.9839881,"ECCENTRICITY":0.00023928,"INCLINATION":97.6919,"RA_OF_ASC_NODE":146.7603,"ARG_OF_PERICENTER":83.3363,"MEAN_ANOMALY":276.8132,"EPHEMERIS_TYPE":0,"CLASSIFICATION_TYPE":"U","NORAD_CAT_ID":60535,"ELEMENT_SET_NO":999,"REV_AT_EPOCH":12796,"BSTAR":0.00036343971,"MEAN_MOTION_DOT":4.278e-5,"MEAN_MOTION_DDOT":0}]
